ONEWEB-0685             
1 54679U 22166AP  25005.86706308  .00000011  00000+0 -38518-5 0  9990
2 54679  87.9308 349.0508 0001753  76.9047 283.2282 13.21825852101754
ONEWEB-0712             
1 54680U 22166AQ  25005.86911382  .00000068  00000+0  14318-3 0  9993
2 54680  87.9103 333.8321 0001181  70.1929 289.9329 13.16595579103136
ONEWEB-0714             
1 54681U 22166AR  25005.49487631  .00000046  00000+0  80529-4 0  9992
2 54681  87.9307 349.1142 0001739  78.3400 281.7929 13.21826254101820
ONEWEB-0532             
1 55140U 23004A   25006.03631838  .00000068  00000+0  14115-3 0  9997
2 55140  87.9102 110.8842 0002168  98.1081 262.0297 13.17650766 98166
ONEWEB-0533             
1 55141U 23004B   25006.27743653 -.00000189  00000+0 -55977-3 0  9990
2 55141  87.8882  95.5696 0001619 102.1127 258.0183 13.12445652 98940
ONEWEB-0541             
1 55142U 23004C   25005.74270708 -.00000459  00000+0 -13319-2 0  9991
2 55142  87.8907 126.1668 0001583 105.0221 255.1082 13.11416059 96814
ONEWEB-0543             
1 55143U 23004D   25005.44319777  .00000092  00000+0  20082-3 0  9996
2 55143  87.9095  80.5334 0001440 104.6515 255.4776 13.18687927100146
ONEWEB-0544             
1 55144U 23004E   25006.27152337  .00000044  00000+0  78008-4 0  9995
2 55144  87.9095  80.3556 0001819 109.2826 250.8503 13.18687656100255
